NORAD_CAT_ID,OBJECT_NAME,OBJECT_TYPE,EPOCH,MEAN_MOTION,ECCENTRICITY,INCLINATION,RA_OF_ASC_NODE,ARG_OF_PERICENTER,MEAN_ANOMALY,BSTAR,MEAN_MOTION_DOT,MEAN_MOTION_DDOT,TLE_LINE0,TLE_LINE1,TLE_LINE2,SEMIMAJOR_AXIS,PERIOD,APOGEE,PERIGEE,DECAYED
55426.0,STARLINK-5638,PAYLOAD,2023-12-22 03:00:21,14.98296637,0.0002986,70.0006,323.2753,262.0195,98.0625,-0.00032983,-4.023e-05,0.0,0 STARLINK-5638,1 55426U 23014AM  23356.12524328 -.00004023  00000-0 -32983-3 0  9997,2 55426  70.0006 323.2753 0002986 262.0195  98.0625 14.98296637 49505,6950.296,96.109,574.236,570.086,0.0
55426.0,STARLINK-5638,PAYLOAD,2023-12-22 07:48:43,14.98315685,0.0002766,70.001,322.7706,251.8994,108.1863,-9.9077e-05,-1.274e-05,0.0,0 STARLINK-5638,1 55426U 23014AM  23356.32550879 -.00001274  00000-0 -99077-4 0  9992,2 55426  70.0010 322.7706 0002766 251.8994 108.1863 14.98315685 49536,6950.237,96.108,574.025,570.18,0.0
55426.0,STARLINK-5638,PAYLOAD,2023-12-22 22:13:55,14.98333055,0.000324,70.0004,321.2537,277.1834,82.8957,1.6373e-05,1.02e-06,0.0,0 STARLINK-5638,1 55426U 23014AM  23356.92633655  .00000102  00000-0  16373-4 0  9997,2 55426  70.0004 321.2537 0003240 277.1834  82.8957 14.98333055 50565,6950.183,96.107,574.3,569.797,0.0
55426.0,STARLINK-5638,PAYLOAD,2023-12-23 03:02:19,14.98335395,0.0002801,70.0003,320.747,268.154,91.9298,0.00010109,1.114e-05,0.0,0 STARLINK-5638,1 55426U 23014AM  23357.12661240  .00001114  00000-0  10109-3 0  9995,2 55426  70.0003 320.7470 0002801 268.1540  91.9298 14.98335395 49656,6950.176,96.107,573.988,570.094,0.0
55426.0,STARLINK-5638,PAYLOAD,2023-12-23 07:50:43,14.98339792,0.0002404,70.0014,320.244,252.6541,107.4355,0.00012728,1.426e-05,0.0,0 STARLINK-5638,1 55426U 23014AM  23357.32688791  .00001426  00000-0  12728-3 0  9992,2 55426  70.0014 320.2440 0002404 252.6541 107.4355 14.98339792 50629,6950.163,96.106,573.698,570.357,0.0
55426.0,STARLINK-5638,PAYLOAD,2023-12-23 22:15:55,14.98313828,0.0002415,70.0014,318.7294,253.5895,106.4998,0.00052137,6.131e-05,0.0,0 STARLINK-5638,1 55426U 23014AM  23357.92772889  .00006131  00000-0  52137-3 0  9996,2 55426  70.0014 318.7294 0002415 253.5895 106.4998 14.98313828 50716,6950.243,96.108,573.786,570.429,0.0
55426.0,STARLINK-5638,PAYLOAD,2023-12-24 03:04:20,14.9831428,0.0002634,70.001,318.225,252.6465,107.4406,0.00045702,5.362e-05,0.0,0 STARLINK-5638,1 55426U 23014AM  23358.12801178  .00005362  00000-0  45702-3 0  9998,2 55426  70.0010 318.2250 0002634 252.6465 107.4406 14.98314280 49801,6950.242,96.108,573.937,570.276,0.0
55426.0,STARLINK-5638,PAYLOAD,2023-12-24 07:52:44,14.98318277,0.0002628,70.0009,317.7199,251.1906,108.8968,0.00043927,5.151e-05,0.0,0 STARLINK-5638,1 55426U 23014AM  23358.32829121  .00005151  00000-0  43927-3 0  9991,2 55426  70.0009 317.7199 0002628 251.1906 108.8968 14.98318277 50778,6950.229,96.108,573.921,570.268,0.0
55426.0,STARLINK-5638,PAYLOAD,2023-12-24 20:41:48,14.98340934,0.0002535,70.0013,316.3739,238.3938,121.6974,-0.00010324,-1.325e-05,0.0,0 STARLINK-5638,1 55426U 23014AM  23358.86236938 -.00001325  00000-0 -10324-3 0  9994,2 55426  70.0013 316.3739 0002535 238.3938 121.6974 14.98340934 49916,6950.159,96.106,573.786,570.262,0.0
55426.0,STARLINK-5638,PAYLOAD,2023-12-24 22:17:56,14.9833897,0.0002319,70.0019,316.2042,241.3754,118.7172,-5.9419e-05,-8.02e-06,0.0,0 STARLINK-5638,1 55426U 23014AM  23358.92912905 -.00000802  00000-0 -59419-4 0  9994,2 55426  70.0019 316.2042 0002319 241.3754 118.7172 14.98338970 50868,6950.165,96.106,573.642,570.418,0.0
55426.0,STARLINK-5638,PAYLOAD,2023-12-25 07:54:44,14.98339877,0.0002643,70.0006,315.1936,256.199,103.8875,-8.0532e-05,-1.054e-05,0.0,0 STARLINK-5638,1 55426U 23014AM  23359.32968732 -.00001054  00000-0 -80532-4 0  9998,2 55426  70.0006 315.1936 0002643 256.1990 103.8875 14.98339877 50929,6950.162,96.106,573.864,570.19,0.0
55426.0,STARLINK-5638,PAYLOAD,2023-12-25 22:19:57,14.98333232,0.000255,70.0012,313.6793,246.5414,113.5477,-3.6578e-05,-5.29e-06,0.0,0 STARLINK-5638,1 55426U 23014AM  23359.93052666 -.00000529  00000-0 -36578-4 0  9992,2 55426  70.0012 313.6793 0002550 246.5414 113.5477 14.98333232 51017,6950.183,96.107,573.82,570.276,0.0
55426.0,STARLINK-5638,PAYLOAD,2023-12-26 03:08:21,14.98330196,0.0002524,70.0018,313.1759,238.6539,121.4373,-6.3981e-05,-8.56e-06,0.0,0 STARLINK-5638,1 55426U 23014AM  23360.13080938 -.00000856  00000-0 -63981-4 0  9990,2 55426  70.0018 313.1759 0002524 238.6539 121.4373 14.98330196 50109,6950.192,96.107,573.812,570.303,0.0
55426.0,STARLINK-5638,PAYLOAD,2023-12-26 06:20:37,14.983329,0.0002619,70.0012,312.8391,246.0983,113.9902,-5.7351e-05,-7.77e-06,0.0,0 STARLINK-5638,1 55426U 23014AM  23360.26432745 -.00000777  00000-0 -57351-4 0  9997,2 55426  70.0012 312.8391 0002619 246.0983 113.9902 14.98332900 51067,6950.184,96.107,573.869,570.229,0.0
55426.0,STARLINK-5638,PAYLOAD,2023-12-26 22:21:58,14.98326888,0.0002652,70.0007,311.1546,256.1874,103.899,-3.3205e-06,-1.33e-06,0.0,0 STARLINK-5638,1 55426U 23014AM  23360.93192871 -.00000133  00000-0 -33205-5 0  9993,2 55426  70.0007 311.1546 0002652 256.1874 103.8990 14.98326888 51167,6950.203,96.107,573.911,570.224,0.0
55426.0,STARLINK-5638,PAYLOAD,2023-12-27 03:10:22,14.98327929,0.0002612,70.0008,310.6495,256.7618,103.325,-1.3489e-05,-2.54e-06,0.0,0 STARLINK-5638,1 55426U 23014AM  23361.13220870 -.00000254  00000-0 -13489-4 0  9992,2 55426  70.0008 310.6495 0002612 256.7618 103.3250 14.98327929 50253,6950.199,96.107,573.88,570.249,0.0
55426.0,STARLINK-5638,PAYLOAD,2023-12-27 06:22:38,14.98325277,0.00027,70.0007,310.3131,261.319,98.7663,0.00010005,1.101e-05,0.0,0 STARLINK-5638,1 55426U 23014AM  23361.26572797  .00001101  00000-0  10005-3 0  9994,2 55426  70.0007 310.3131 0002700 261.3190  98.7663 14.98325277 51217,6950.207,96.107,573.949,570.196,0.0
55426.0,STARLINK-5638,PAYLOAD,2023-12-27 22:23:59,14.98322828,0.0002665,70.0005,308.628,262.08,98.0057,4.2382e-05,4.13e-06,0.0,0 STARLINK-5638,1 55426U 23014AM  23361.93333092  .00000413  00000-0  42382-4 0  9990,2 55426  70.0005 308.6280 0002665 262.0800  98.0057 14.98322828 51316,6950.215,96.107,573.932,570.228,0.0
55426.0,STARLINK-5638,PAYLOAD,2023-12-28 03:12:24,14.9832241,0.0002778,70.0002,308.123,266.7174,93.3667,3.434e-05,3.17e-06,0.0,0 STARLINK-5638,1 55426U 23014AM  23362.13361225  .00000317  00000-0  34340-4 0  9990,2 55426  70.0002 308.1230 0002778 266.7174  93.3667 14.98322410 50404,6950.216,96.107,574.012,570.151,0.0
55426.0,STARLINK-5638,PAYLOAD,2023-12-28 06:24:40,14.98325642,0.0002681,70.0007,307.7869,263.4297,96.6557,5.364e-05,5.47e-06,0.0,0 STARLINK-5638,1 55426U 23014AM  23362.26713013  .00000547  00000-0  53640-4 0  9999,2 55426  70.0007 307.7869 0002681 263.4297  96.6557 14.98325642 51365,6950.206,96.107,573.935,570.208,0.0
55426.0,STARLINK-5638,PAYLOAD,2023-12-28 22:26:00,14.98331449,0.0002807,70.0001,306.104,267.2328,92.8509,3.5955e-05,3.36e-06,0.0,0 STARLINK-5638,1 55426U 23014AM  23362.93472656  .00000336  00000-0  35955-4 0  9993,2 55426  70.0001 306.1040 0002807 267.2328  92.8509 14.98331449 51468,6950.188,96.107,574.004,570.102,0.0
55426.0,STARLINK-5638,PAYLOAD,2023-12-29 03:14:24,14.98330742,0.000282,70.0002,305.5988,267.7875,92.2961,5.9577e-05,6.18e-06,0.0,0 STARLINK-5638,1 55426U 23014AM  23363.13500620  .00000618  00000-0  59577-4 0  9998,2 55426  70.0002 305.5988 0002820 267.7875  92.2961 14.98330742 50550,6950.191,96.107,574.016,570.096,0.0
55426.0,STARLINK-5638,PAYLOAD,2023-12-29 06:26:39,14.98373584,0.0003041,70.0001,305.262,266.4418,93.6393,-0.00062223,-7.518e-05,0.0,0 STARLINK-5638,1 55426U 23014AM  23363.26851395 -.00007518  00000-0 -62223-3 0  9999,2 55426  70.0001 305.2620 0003041 266.4418  93.6393 14.98373584 50571,6950.058,96.104,574.037,569.81,0.0
55426.0,STARLINK-5638,PAYLOAD,2023-12-29 22:28:01,14.98330435,0.0002773,70.0004,303.5787,265.0647,95.0195,3.5035e-05,3.25e-06,0.0,0 STARLINK-5638,1 55426U 23014AM  23363.93612593  .00000325  00000-0  35035-4 0  9997,2 55426  70.0004 303.5787 0002773 265.0647  95.0195 14.98330435 51619,6950.192,96.107,573.984,570.129,0.0
55426.0,STARLINK-5638,PAYLOAD,2023-12-30 03:16:25,14.98332222,0.0002742,70.0003,303.0736,263.8709,96.2137,5.6067e-05,5.76e-06,0.0,0 STARLINK-5638,1 55426U 23014AM  23364.13640398  .00000576  00000-0  56067-4 0  9990,2 55426  70.0003 303.0736 0002742 263.8709  96.2137 14.98332222 50702,6950.186,96.107,573.957,570.145,0.0
55426.0,STARLINK-5638,PAYLOAD,2023-12-30 06:28:41,14.98335099,0.0002725,70.0003,302.7367,263.7558,96.3291,8.5543e-05,9.28e-06,0.0,0 STARLINK-5638,1 55426U 23014AM  23364.26992103  .00000928  00000-0  85543-4 0  9990,2 55426  70.0003 302.7367 0002725 263.7558  96.3291 14.98335099 51663,6950.177,96.107,573.936,570.148,0.0
55426.0,STARLINK-5638,PAYLOAD,2023-12-30 19:17:46,14.98313593,0.0002621,70.0009,301.39,263.6022,96.4839,0.00026471,3.066e-05,0.0,0 STARLINK-5638,1 55426U 23014AM  23364.80400630  .00003066  00000-0  26471-3 0  9999,2 55426  70.0009 301.3900 0002621 263.6022  96.4839 14.98313593 50806,6950.244,96.108,573.93,570.287,0.0
55426.0,STARLINK-5638,PAYLOAD,2023-12-30 22:30:02,14.9832837,0.0002518,70.0006,301.0534,261.1925,98.8949,-3.6729e-05,-5.31e-06,0.0,0 STARLINK-5638,1 55426U 23014AM  23364.93752766 -.00000531  00000-0 -36729-4 0  9997,2 55426  70.0006 301.0534 0002518 261.1925  98.8949 14.98328370 51766,6950.198,96.107,573.813,570.313,0.0
55426.0,STARLINK-5638,PAYLOAD,2023-12-31 06:30:42,14.98329049,0.0002518,70.0007,300.2117,260.4411,99.6463,-2.5938e-05,-4.02e-06,0.0,0 STARLINK-5638,1 55426U 23014AM  23365.27132712 -.00000402  00000-0 -25938-4 0  9995,2 55426  70.0007 300.2117 0002518 260.4411  99.6463 14.98329049 50872,6950.196,96.107,573.811,570.311,0.0
55426.0,STARLINK-5638,PAYLOAD,2023-12-31 22:32:03,14.98330673,0.0002534,70.0007,298.5286,256.169,103.9187,-2.2401e-05,-3.6e-06,0.0,0 STARLINK-5638,1 55426U 23014AM  23365.93892523 -.00000360  00000-0 -22401-4 0  9996,2 55426  70.0007 298.5286 0002534 256.1690 103.9187 14.98330673 51910,6950.191,96.107,573.817,570.295,0.0
